STARLINK-1294
1 15551C 20025W   21326.15162126  .00000390  00000-0  26141-4 0  3261
2 15551  53.0532 288.0709 0001834  60.8237  59.2287 15.06388417    13
